ONEWEB-0683             
1 56719U 23068K   25360.25315599  .00000226  00000+0  56607-3 0  9998
2 56719  87.9012 293.6933 0001591  84.2774 275.8538 13.15546875126686
ONEWEB-0684             
1 56720U 23068L   25360.26108027 -.00000027  00000+0 -10531-3 0  9994
2 56720  87.9020 293.6862 0002092  41.1063 319.0224 13.15546994126515
ONEWEB-0686             
1 56721U 23068M   25360.23861339 -.00000028  00000+0 -10758-3 0  9996
2 56721  87.9036 263.2470 0001253  69.0952 291.0313 13.15705273128950
ONEWEB-0694             
1 56722U 23068N   25359.78536811 -.00000018  00000+0 -81231-4 0  9993
2 56722  87.9056 263.2675 0001293  88.0837 272.0442 13.16593372128955
ONEWEB-0696             
1 56723U 23068P   25360.21829191  .00000036  00000+0  60993-4 0  9990
2 56723  87.9000 293.7445 0001906  65.8109 294.3221 13.15547094126627
ONEWEB-0703             
1 56724U 23068Q   25360.22779843  .00000000  00000+0 -34309-4 0  9994
2 56724  87.9007 293.7256 0002684  63.1631 296.9774 13.15546728126512
ONEWEB-0721             
1 56725U 23068R   25360.18217600  .00000328  00000+0  75196-3 0  9998
2 56725  86.6802 140.7112 0001451 101.9689 258.1607 13.22452909135070
ONEWEB-0015             
1 61594U 24188A   25360.19208242 -.00000460  00000+0 -13348-2 0  9994
2 61594  87.8842  55.5467 0002291 111.0650 249.0723 13.11418491 61786
